{
  "norad_id": 62065,
  "name": "STARLINK-11474 [DTC]",
  "history": [
    {
      "epoch": "2026-03-28T22:54:24.904224Z",
      "apogee_km": 360.73890474495147,
      "perigee_km": 358.9282772877341,
      "latitude_deg": -4.157165280456245e-05,
      "longitude_deg": 165.99371179357155,
      "height_km": 361.2362906099354,
      "semi_major_axis_km": 6737.970591016343,
      "eccentricity": 0.00013436,
      "inclination_deg": 53.1587,
      "raan_deg": 335.965,
      "arg_perigee_deg": 122.7117,
      "mean_anomaly_deg": 237.403,
      "mean_motion_rev_day": 15.69672665
    },
    {
      "epoch": "2026-03-29T01:57:46.956672Z",
      "apogee_km": 360.48248849176343,
      "perigee_km": 358.6471385177647,
      "latitude_deg": 2.4960077551948016e-05,
      "longitude_deg": 119.39946556325629,
      "height_km": 360.8358003689322,
      "semi_major_axis_km": 6737.701813504764,
      "eccentricity": 0.0001362,
      "inclination_deg": 53.1579,
      "raan_deg": 335.3381,
      "arg_perigee_deg": 112.9452,
      "mean_anomaly_deg": 247.171,
      "mean_motion_rev_day": 15.69766591
    },
    {
      "epoch": "2026-03-29T23:21:21.621024Z",
      "apogee_km": 360.29739882656395,
      "perigee_km": 358.9173740213373,
      "latitude_deg": -6.55278535800892e-05,
      "longitude_deg": 153.23238605557762,
      "height_km": 360.07201291469323,
      "semi_major_axis_km": 6737.74438642395,
      "eccentricity": 0.00010241,
      "inclination_deg": 53.1578,
      "raan_deg": 330.9441,
      "arg_perigee_deg": 49.377,
      "mean_anomaly_deg": 310.7336,
      "mean_motion_rev_day": 15.69751713
    },
    {
      "epoch": "2026-03-30T22:16:37.211808Z",
      "apogee_km": 360.266267216125,
      "perigee_km": 358.81577989121524,
      "latitude_deg": -4.0867513694212933e-05,
      "longitude_deg": 163.76881199845363,
      "height_km": 360.63204988290386,
      "semi_major_axis_km": 6737.67802355367,
      "eccentricity": 0.00010764,
      "inclination_deg": 53.1575,
      "raan_deg": 326.2368,
      "arg_perigee_deg": 104.1699,
      "mean_anomaly_deg": 255.9438,
      "mean_motion_rev_day": 15.69774905
    },
    {
      "epoch": "2026-03-31T21:11:53.122272Z",
      "apogee_km": 359.97776312416136,
      "perigee_km": 359.1247717895012,
      "latitude_deg": 1.932609476805973e-05,
      "longitude_deg": 174.30302900600927,
      "height_km": 360.3520660519789,
      "semi_major_axis_km": 6737.6882674568305,
      "eccentricity": 6.33e-05,
      "inclination_deg": 53.1566,
      "raan_deg": 321.5286,
      "arg_perigee_deg": 74.6146,
      "mean_anomaly_deg": 285.4942,
      "mean_motion_rev_day": 15.69771325
    },
    {
      "epoch": "2026-04-01T00:15:14.991552Z",
      "apogee_km": 360.1982265509823,
      "perigee_km": 358.9159086160398,
      "latitude_deg": 9.924438738980817e-06,
      "longitude_deg": 127.70929164585306,
      "height_km": 360.46036529781094,
      "semi_major_axis_km": 6737.69406758351,
      "eccentricity": 9.516e-05,
      "inclination_deg": 53.1563,
      "raan_deg": 320.9015,
      "arg_perigee_deg": 89.0906,
      "mean_anomaly_deg": 271.0221,
      "mean_motion_rev_day": 15.69769298
    },
    {
      "epoch": "2026-04-02T08:20:36.359520Z",
      "apogee_km": 360.71743021573366,
      "perigee_km": 358.3145136598214,
      "latitude_deg": 3.4188791079503674e-05,
      "longitude_deg": -1.5403814567389862,
      "height_km": 360.3374802805092,
      "semi_major_axis_km": 6737.652971937777,
      "eccentricity": 0.00017832,
      "inclination_deg": 53.1556,
      "raan_deg": 314.3087,
      "arg_perigee_deg": 85.6681,
      "mean_anomaly_deg": 274.4541,
      "mean_motion_rev_day": 15.6978366
    },
    {
      "epoch": "2026-04-03T21:01:01.750944Z",
      "apogee_km": 360.98885469248034,
      "perigee_km": 358.6292259891525,
      "latitude_deg": 2.8249661098833757e-05,
      "longitude_deg": 159.3151807514614,
      "height_km": 359.73616719204654,
      "semi_major_axis_km": 6737.946040340816,
      "eccentricity": 0.0001751,
      "inclination_deg": 53.1564,
      "raan_deg": 306.7762,
      "arg_perigee_deg": 33.2796,
      "mean_anomaly_deg": 326.8332,
      "mean_motion_rev_day": 15.69681244
    },
    {
      "epoch": "2026-04-04T19:56:17.051424Z",
      "apogee_km": 361.2187113384107,
      "perigee_km": 358.5221607625035,
      "latitude_deg": -2.815268396752687e-06,
      "longitude_deg": 169.85167620251104,
      "height_km": 359.5995043472248,
      "semi_major_axis_km": 6738.007436050457,
      "eccentricity": 0.0002001,
      "inclination_deg": 53.1572,
      "raan_deg": 302.0678,
      "arg_perigee_deg": 28.5362,
      "mean_anomaly_deg": 331.5765,
      "mean_motion_rev_day": 15.6965979
    },
    {
      "epoch": "2026-04-05T06:38:04.808256Z",
      "apogee_km": 360.75323643292904,
      "perigee_km": 358.2320154269055,
      "latitude_deg": 4.3908733937390375e-05,
      "longitude_deg": 6.7661298433114,
      "height_km": 359.4258320704713,
      "semi_major_axis_km": 6737.629625929917,
      "eccentricity": 0.0001871,
      "inclination_deg": 53.1563,
      "raan_deg": 299.8705,
      "arg_perigee_deg": 38.9776,
      "mean_anomaly_deg": 321.1377,
      "mean_motion_rev_day": 15.69791819
    },
    {
      "epoch": "2026-04-05T20:23:13.851168Z",
      "apogee_km": 362.060313142566,
      "perigee_km": 357.1821761734345,
      "latitude_deg": 2.5369186966152803e-05,
      "longitude_deg": 157.09014060740685,
      "height_km": 358.1337158721918,
      "semi_major_axis_km": 6737.758244658,
      "eccentricity": 0.000362,
      "inclination_deg": 53.1573,
      "raan_deg": 297.047,
      "arg_perigee_deg": 10.0606,
      "mean_anomaly_deg": 350.0484,
      "mean_motion_rev_day": 15.6974687
    },
    {
      "epoch": "2026-04-05T23:26:35.105280Z",
      "apogee_km": 360.49900493994573,
      "perigee_km": 358.50560697488436,
      "latitude_deg": 6.91007202130784e-05,
      "longitude_deg": 110.49871264828808,
      "height_km": 359.5181561525443,
      "semi_major_axis_km": 6737.639305957415,
      "eccentricity": 0.00014793,
      "inclination_deg": 53.1567,
      "raan_deg": 296.4196,
      "arg_perigee_deg": 25.7019,
      "mean_anomaly_deg": 334.4073,
      "mean_motion_rev_day": 15.69788436
    },
    {
      "epoch": "2026-04-07T06:00:15.910560Z",
      "apogee_km": 360.2954424314921,
      "perigee_km": 358.53492004653344,
      "latitude_deg": -2.8194688005718496e-05,
      "longitude_deg": 4.546205478460971,
      "height_km": 359.91959773309736,
      "semi_major_axis_km": 6737.5521812390125,
      "eccentricity": 0.00013065,
      "inclination_deg": 53.157,
      "raan_deg": 290.1423,
      "arg_perigee_deg": 62.3214,
      "mean_anomaly_deg": 297.7936,
      "mean_motion_rev_day": 15.69818885
    },
    {
      "epoch": "2026-04-07T18:13:44.103072Z",
      "apogee_km": 361.4494901355047,
      "perigee_km": 358.02799683296416,
      "latitude_deg": 2.37549887064379e-06,
      "longitude_deg": 178.16521567132074,
      "height_km": 358.9945854224646,
      "semi_major_axis_km": 6737.875743484235,
      "eccentricity": 0.0002539,
      "inclination_deg": 53.1573,
      "raan_deg": 287.6308,
      "arg_perigee_deg": 14.2408,
      "mean_anomaly_deg": 345.8681,
      "mean_motion_rev_day": 15.69705809
    },
    {
      "epoch": "2026-04-07T18:13:44.103936Z",
      "apogee_km": 361.4495575142637,
      "perigee_km": 358.02792945420697,
      "latitude_deg": 2.135376420877272e-06,
      "longitude_deg": 178.1652118825755,
      "height_km": 358.9945201173287,
      "semi_major_axis_km": 6737.875743484235,
      "eccentricity": 0.00025391,
      "inclination_deg": 53.1573,
      "raan_deg": 287.6308,
      "arg_perigee_deg": 14.2408,
      "mean_anomaly_deg": 345.8681,
      "mean_motion_rev_day": 15.69705809
    },
    {
      "epoch": "2026-04-09T19:07:37.100352Z",
      "apogee_km": 360.7520685242107,
      "perigee_km": 358.8182848594997,
      "latitude_deg": -9.128803740819928e-06,
      "longitude_deg": 152.6442072354768,
      "height_km": 360.03420453899776,
      "semi_major_axis_km": 6737.9221766918545,
      "eccentricity": 0.0001435,
      "inclination_deg": 53.1572,
      "raan_deg": 277.5888,
      "arg_perigee_deg": 46.5944,
      "mean_anomaly_deg": 313.5193,
      "mean_motion_rev_day": 15.69689583
    },
    {
      "epoch": "2026-04-09T19:07:37.101216Z",
      "apogee_km": 360.7520685242107,
      "perigee_km": 358.8182848594997,
      "latitude_deg": -9.128803417904899e-06,
      "longitude_deg": 152.64420362562123,
      "height_km": 360.0342045389998,
      "semi_major_axis_km": 6737.9221766918545,
      "eccentricity": 0.0001435,
      "inclination_deg": 53.1572,
      "raan_deg": 277.5888,
      "arg_perigee_deg": 46.5944,
      "mean_anomaly_deg": 313.5193,
      "mean_motion_rev_day": 15.69689583
    },
    {
      "epoch": "2026-04-11T20:01:30.184032Z",
      "apogee_km": 360.67688259353145,
      "perigee_km": 358.6730573136674,
      "latitude_deg": -6.607846674354868e-05,
      "longitude_deg": 127.11930579072904,
      "height_km": 359.8003635591188,
      "semi_major_axis_km": 6737.811969953599,
      "eccentricity": 0.0001487,
      "inclination_deg": 53.157,
      "raan_deg": 267.5433,
      "arg_perigee_deg": 38.1212,
      "mean_anomaly_deg": 321.991,
      "mean_motion_rev_day": 15.69728095
    },
    {
      "epoch": "2026-04-12T20:28:26.674464Z",
      "apogee_km": 360.12460752763764,
      "perigee_km": 359.1671685792453,
      "latitude_deg": 1.571361301862127e-05,
      "longitude_deg": 114.35840345472948,
      "height_km": 360.2798855997996,
      "semi_major_axis_km": 6737.782888053441,
      "eccentricity": 7.105e-05,
      "inclination_deg": 53.1573,
      "raan_deg": 262.5218,
      "arg_perigee_deg": 54.1948,
      "mean_anomaly_deg": 305.9136,
      "mean_motion_rev_day": 15.69738258
    },
    {
      "epoch": "2026-04-14T16:47:16.323072Z",
      "apogee_km": 360.34724027258653,
      "perigee_km": 359.042795993877,
      "latitude_deg": -4.876537779916328e-07,
      "longitude_deg": 158.72722101318655,
      "height_km": 360.2949940966832,
      "semi_major_axis_km": 6737.832018133232,
      "eccentricity": 9.68e-05,
      "inclination_deg": 53.1574,
      "raan_deg": 253.4174,
      "arg_perigee_deg": 61.2469,
      "mean_anomaly_deg": 298.8646,
      "mean_motion_rev_day": 15.69721089
    },
    {
      "epoch": "2026-04-15T15:42:31.760928Z",
      "apogee_km": 359.71670779252327,
      "perigee_km": 358.8031167712179,
      "latitude_deg": 2.0015360293188154e-05,
      "longitude_deg": 169.2637834810565,
      "height_km": 359.71886969787,
      "semi_major_axis_km": 6737.39691228187,
      "eccentricity": 6.78e-05,
      "inclination_deg": 53.1577,
      "raan_deg": 248.7096,
      "arg_perigee_deg": 3.6577,
      "mean_anomaly_deg": 356.4446,
      "mean_motion_rev_day": 15.69873152
    }
  ]
}